[{"OBJECT_NAME":"STARLINK-34964","OBJECT_ID":"2025-179E","EPOCH":"2026-03-09T16:34:15.186720","MEAN_MOTION":15.05664519,"ECCENTRICITY":0.00012328,"INCLINATION":97.6023,"RA_OF_ASC_NODE":112.8903,"ARG_OF_PERICENTER":134.1266,"MEAN_ANOMALY":226.0062,"EPHEMERIS_TYPE":0,"CLASSIFICATION_TYPE":"U","NORAD_CAT_ID":65239,"ELEMENT_SET_NO":999,"REV_AT_EPOCH":3181,"BSTAR":0.00028840105,"MEAN_MOTION_DOT":4.105e-5,"MEAN_MOTION_DDOT":0},{"OBJECT_NAME":"PEGASUS DEB","OBJECT_ID":"1994-029AGC","EPOCH":"2026-03-05T08:27:18.984384","MEAN_MOTION":14.52218034,"ECCENTRICITY":0.0236757,"INCLINATION":81.9426,"RA_OF_ASC_NODE":296.4283,"ARG_OF_PERICENTER":114.8689,"MEAN_ANOMALY":247.7324,"EPHEMERIS_TYPE":0,"CLASSIFICATION_TYPE":"U","NORAD_CAT_ID":39929,"ELEMENT_SET_NO":999,"REV_AT_EPOCH":61587,"BSTAR":0.0010545,"MEAN_MOTION_DOT":6.215e-5,"MEAN_MOTION_DDOT":0}]
